OBJECT_NAME,OBJECT_ID,EPOCH,MEAN_MOTION,ECCENTRICITY,INCLINATION,RA_OF_ASC_NODE,ARG_OF_PERICENTER,MEAN_ANOMALY,EPHEMERIS_TYPE,CLASSIFICATION_TYPE,NORAD_CAT_ID,ELEMENT_SET_NO,REV_AT_EPOCH,BSTAR,MEAN_MOTION_DOT,MEAN_MOTION_DDOT
INNOSAT 3 (RS92S0),2025-155U,2026-06-17T04:23:30.634944,15.43825466,.0006534,97.4489,139.6788,151.1793,208.9817,0,U,64894,999,8096,.65102E-3,.29502E-3,0
KNACKSAT-2,1998-067XZ,2026-06-16T15:29:59.515008,15.59934910,.0009189,51.6312,297.1999,212.7793,147.2631,0,U,67683,999,2019,.4823E-3,.39403E-3,0
