INNOSAT 3 (RS92S0)      
1 64894U 25155U   26168.18299346  .00029502  00000+0  65102-3 0  9998
2 64894  97.4489 139.6788 0006534 151.1793 208.9817 15.43825466 80963
KNACKSAT-2              
1 67683U 98067XZ  26167.64582772  .00039403  00000+0  48230-3 0  9991
2 67683  51.6312 297.1999 0009189 212.7793 147.2631 15.59934910 20196
